OBJECT_NAME,OBJECT_ID,EPOCH,MEAN_MOTION,ECCENTRICITY,INCLINATION,RA_OF_ASC_NODE,ARG_OF_PERICENTER,MEAN_ANOMALY,EPHEMERIS_TYPE,CLASSIFICATION_TYPE,NORAD_CAT_ID,ELEMENT_SET_NO,REV_AT_EPOCH,BSTAR,MEAN_MOTION_DOT,MEAN_MOTION_DDOT
STARLINK-36947,2026-040U,2026-07-14T09:42:43.295328,15.33446152,.00015462,97.2828,143.7281,93.7093,266.4326,0,U,68033,999,2088,.36523852E-3,.11735E-3,0
STARLINK-36939,2026-040V,2026-07-14T09:27:03.717792,15.33444245,.00020215,97.2835,143.7376,92.4864,267.6610,0,U,68034,999,2088,.32118893E-3,.10308E-3,0
STARLINK-36943,2026-040W,2026-07-14T09:19:14.025792,15.33439115,.00021792,97.2828,143.7525,77.4790,282.6696,0,U,68035,999,2201,.30717484E-3,.9853E-4,0
STARLINK-36906,2026-040X,2026-07-14T09:30:58.632480,15.33445198,.00022121,97.2867,143.7372,107.5644,252.5841,0,U,68036,999,2088,.29507623E-3,.9463E-4,0
STARLINK-36388,2026-040Y,2026-07-14T09:23:08.860128,15.33444370,.00020437,97.2837,143.7433,84.4021,275.7455,0,U,68037,999,2088,.28434963E-3,.9116E-4,0
STARLINK-36895,2026-040Z,2026-07-14T09:34:53.139360,15.33446358,.00029596,97.2833,143.7356,109.1985,250.9578,0,U,68038,999,2088,.16086535E-3,.5122E-4,0
STARLINK-36373,2026-040AA,2026-07-14T09:38:48.374592,15.33445481,.00022695,97.2837,143.7268,114.3550,245.7930,0,U,68039,999,2088,.32094578E-3,.10301E-3,0
STARLINK-36711,2026-041A,2026-07-14T07:58:40.021824,15.34393126,.00011005,53.1562,178.3951,89.7765,270.3364,0,U,68040,999,2082,.88691803E-4,.2621E-4,0
STARLINK-36825,2026-041B,2026-07-14T06:00:37.653120,15.34391933,.00011382,53.1559,178.5708,84.2473,275.8660,0,U,68041,999,2081,.23466966E-3,.7559E-4,0
STARLINK-36925,2026-041C,2026-07-14T09:33:16.125984,15.34394192,.0000932,53.1554,180.2198,70.3215,289.7888,0,U,68042,999,2080,.29943699E-3,.9752E-4,0
STARLINK-36902,2026-041D,2026-07-14T10:45:51.168096,15.34396832,.00014368,53.1573,179.8144,84.7044,275.4122,0,U,68043,999,2081,.41143277E-3,.13548E-3,0
STARLINK-36966,2026-041E,2026-07-14T04:32:53.707200,15.34393594,.00010702,53.1550,178.9244,74.9824,285.1297,0,U,68044,999,2080,.44705761E-3,.14755E-3,0
STARLINK-36864,2026-041F,2026-07-14T08:10:47.140896,15.34393981,.00010575,53.1574,178.4426,93.7746,266.3377,0,U,68045,999,2082,.35081162E-3,.11493E-3,0
STARLINK-36321,2026-041G,2026-07-14T08:53:53.181888,15.34417308,.00010597,53.1564,180.0488,75.9693,284.1427,0,U,68046,999,2080,.55140992E-3,.1831E-3,0
STARLINK-36181,2026-041H,2026-07-14T10:06:28.052064,15.34386545,.00009735,53.1573,179.6375,115.8049,244.3055,0,U,68047,999,2081,.12394221E-3,.3812E-4,0
STARLINK-36318,2026-041J,2026-07-14T05:36:32.875776,15.34384026,.00010175,53.1562,179.1874,82.7659,277.3460,0,U,68048,999,2080,.37173799E-3,.12198E-3,0
STARLINK-36885,2026-041K,2026-07-14T09:20:20.633280,15.34398023,.00010988,53.1565,178.0419,87.4403,272.6725,0,U,68049,999,2083,.29390256E-3,.9566E-4,0
STARLINK-36945,2026-041L,2026-07-14T08:28:57.114048,15.34417176,.00016711,53.1603,178.5056,64.9308,295.1868,0,U,68050,999,2082,.54882472E-3,.18222E-3,0
STARLINK-35911,2026-041M,2026-07-14T07:47:20.959296,15.34392899,.0001155,53.1570,180.4588,102.9941,257.1191,0,U,68051,999,2079,.41509265E-3,.13671E-3,0
STARLINK-35808,2026-041N,2026-07-14T10:18:35.269632,15.34390768,.00011837,53.1562,179.7036,77.2661,282.8474,0,U,68052,999,2081,.33921115E-3,.11098E-3,0
STARLINK-36919,2026-041P,2026-07-14T09:24:10.609344,15.34398718,.00007906,53.1559,180.1628,65.1243,294.9842,0,U,68053,999,2080,.52771072E-3,.17494E-3,0
STARLINK-36924,2026-041Q,2026-07-14T09:59:43.952352,15.34396446,.00012514,53.1582,178.2172,77.0329,283.0813,0,U,68054,999,2083,.27820268E-3,.9034E-4,0
STARLINK-35998,2026-041R,2026-07-14T10:36:45.832032,15.34392498,.00012039,53.1562,179.7785,81.4273,278.6866,0,U,68055,999,2081,.31359745E-3,.10231E-3,0
STARLINK-36845,2026-041S,2026-07-14T09:56:41.816832,15.34393801,.00011736,53.1573,178.1780,96.1314,263.9822,0,U,68056,999,2083,.25548154E-3,.8264E-4,0
STARLINK-36954,2026-041T,2026-07-14T08:04:43.434912,15.34393029,.00013767,53.1570,178.4061,83.2433,276.8726,0,U,68057,999,2082,.24942756E-3,.8058E-4,0
STARLINK-36899,2026-041U,2026-07-14T08:26:36.943872,15.34392988,.00013919,53.1564,179.9389,75.5576,284.5581,0,U,68058,999,2080,.28838267E-3,.9377E-4,0
STARLINK-36917,2026-041V,2026-07-14T10:08:49.169184,15.34404190,.00011024,53.1569,178.2346,63.6576,296.4540,0,U,68059,999,2083,.30896242E-3,.10078E-3,0
STARLINK-36959,2026-041W,2026-07-14T07:52:36.252768,15.34395415,.00011141,53.1556,178.3591,99.3242,260.7886,0,U,68060,999,2082,.26080463E-3,.8444E-4,0
STARLINK-36915,2026-041X,2026-07-14T05:48:30.347424,15.34396763,.00009365,53.1546,178.5230,69.6870,290.4233,0,U,68061,999,2081,.2846282E-3,.9251E-4,0
STARLINK-36952,2026-041Y,2026-07-14T11:24:27.478656,15.34405217,.0001016,53.1546,177.8601,126.3936,233.7161,0,U,68062,999,2084,.44678789E-3,.14752E-3,0
