STARLINK-36947          
1 68033U 26040U   26195.40466777  .00011735  00000+0  36524-3 0  9995
2 68033  97.2828 143.7281 0001546  93.7093 266.4326 15.33446152 20882
STARLINK-36939          
1 68034U 26040V   26195.39379303  .00010308  00000+0  32119-3 0  9993
2 68034  97.2835 143.7376 0002021  92.4864 267.6610 15.33444245 20887
STARLINK-36943          
1 68035U 26040W   26195.38835678  .00009853  00000+0  30717-3 0  9990
2 68035  97.2828 143.7525 0002179  77.4790 282.6696 15.33439115 22019
STARLINK-36906          
1 68036U 26040X   26195.39651195  .00009463  00000+0  29508-3 0  9995
2 68036  97.2867 143.7372 0002212 107.5644 252.5841 15.33445198 20883
STARLINK-36388          
1 68037U 26040Y   26195.39107477  .00009116  00000+0  28435-3 0  9998
2 68037  97.2837 143.7433 0002043  84.4021 275.7455 15.33444370 20882
STARLINK-36895          
1 68038U 26040Z   26195.39922615  .00005122  00000+0  16087-3 0  9991
2 68038  97.2833 143.7356 0002959 109.1985 250.9578 15.33446358 20882
STARLINK-36373          
1 68039U 26040AA  26195.40194878  .00010301  00000+0  32095-3 0  9998
2 68039  97.2837 143.7268 0002269 114.3550 245.7930 15.33445481 20889
STARLINK-36711          
1 68040U 26041A   26195.33240766  .00002621  00000+0  88692-4 0  9992
2 68040  53.1562 178.3951 0001100  89.7765 270.3364 15.34393126 20824
STARLINK-36825          
1 68041U 26041B   26195.25043580  .00007559  00000+0  23467-3 0  9992
2 68041  53.1559 178.5708 0001138  84.2473 275.8660 15.34391933 20812
STARLINK-36925          
1 68042U 26041C   26195.39810331  .00009752  00000+0  29944-3 0  9997
2 68042  53.1554 180.2198 0000932  70.3215 289.7888 15.34394192 20807
STARLINK-36902          
1 68043U 26041D   26195.44850889  .00013548  00000+0  41143-3 0  9999
2 68043  53.1573 179.8144 0001436  84.7044 275.4122 15.34396832 20810
STARLINK-36966          
1 68044U 26041E   26195.18951050  .00014755  00000+0  44706-3 0  9992
2 68044  53.1550 178.9244 0001070  74.9824 285.1297 15.34393594 20800
STARLINK-36864          
1 68045U 26041F   26195.34082339  .00011493  00000+0  35081-3 0  9998
2 68045  53.1574 178.4426 0001057  93.7746 266.3377 15.34393981 20823
STARLINK-36321          
1 68046U 26041G   26195.37075442  .00018310  00000+0  55141-3 0  9993
2 68046  53.1564 180.0488 0001059  75.9693 284.1427 15.34417308 20807
STARLINK-36181          
1 68047U 26041H   26195.42115801  .00003812  00000+0  12394-3 0  9998
2 68047  53.1573 179.6375 0000973 115.8049 244.3055 15.34386545 20814
STARLINK-36318          
1 68048U 26041J   26195.23371384  .00012198  00000+0  37174-3 0  9998
2 68048  53.1562 179.1874 0001017  82.7659 277.3460 15.34384026 20808
STARLINK-36885          
1 68049U 26041K   26195.38912770  .00009566  00000+0  29390-3 0  9991
2 68049  53.1565 178.0419 0001098  87.4403 272.6725 15.34398023 20830
STARLINK-36945          
1 68050U 26041L   26195.35343882  .00018222  00000+0  54882-3 0  9995
2 68050  53.1603 178.5056 0001671  64.9308 295.1868 15.34417176 20826
STARLINK-35911          
1 68051U 26041M   26195.32454814  .00013671  00000+0  41509-3 0  9996
2 68051  53.1570 180.4588 0001155 102.9941 257.1191 15.34392899 20792
STARLINK-35808          
1 68052U 26041N   26195.42957488  .00011098  00000+0  33921-3 0  9993
2 68052  53.1562 179.7036 0001183  77.2661 282.8474 15.34390768 20812
STARLINK-36919          
1 68053U 26041P   26195.39178946  .00017494  00000+0  52771-3 0  9994
2 68053  53.1559 180.1628 0000790  65.1243 294.9842 15.34398718 20802
STARLINK-36924          
1 68054U 26041Q   26195.41648093  .00009034  00000+0  27820-3 0  9991
2 68054  53.1582 178.2172 0001251  77.0329 283.0813 15.34396446 20837
STARLINK-35998          
1 68055U 26041R   26195.44219713  .00010231  00000+0  31360-3 0  9993
2 68055  53.1562 179.7785 0001203  81.4273 278.6866 15.34392498 20815
STARLINK-36845          
1 68056U 26041S   26195.41437288  .00008264  00000+0  25548-3 0  9994
2 68056  53.1573 178.1780 0001173  96.1314 263.9822 15.34393801 20831
STARLINK-36954          
1 68057U 26041T   26195.33661383  .00008058  00000+0  24943-3 0  9990
2 68057  53.1570 178.4061 0001376  83.2433 276.8726 15.34393029 20825
STARLINK-36899          
1 68058U 26041U   26195.35181648  .00009377  00000+0  28838-3 0  9996
2 68058  53.1564 179.9389 0001391  75.5576 284.5581 15.34392988 20803
STARLINK-36917          
1 68059U 26041V   26195.42279131  .00010078  00000+0  30896-3 0  9997
2 68059  53.1569 178.2346 0001102  63.6576 296.4540 15.34404190 20831
STARLINK-36959          
1 68060U 26041W   26195.32819737  .00008444  00000+0  26080-3 0  9994
2 68060  53.1556 178.3591 0001114  99.3242 260.7886 15.34395415 20826
STARLINK-36915          
1 68061U 26041X   26195.24201791  .00009251  00000+0  28463-3 0  9995
2 68061  53.1546 178.5230 0000936  69.6870 290.4233 15.34396763 20818
STARLINK-36952          
1 68062U 26041Y   26195.47531804  .00014752  00000+0  44679-3 0  9991
2 68062  53.1546 177.8601 0001016 126.3936 233.7161 15.34405217 20845
